#dP2023  7 14 12  0  0.00000000      96 __u+U ITR00 EXT  IAC
## 2270 475200.00000000   900.00000000 60139 0.5000000000000
+  118   C06C07C08C09C10C11C12C13C14C16C19C20C21C22C23C24C25
+        C26C27C28C29C30C32C33C34C35C36C37C38C39C40C41C42C43
+        C44C45C46E02E03E04E05E07E08E09E10E11E12E13E14E15E18
+        E19E21E24E25E26E27E30E31E34E36G01G02G03G04G05G06G07
+        G08G09G10G11G12G13G14G15G16G17G18G19G20G21G22G23G24
+        G25G26G27G28G29G30G31G32J02J03J04R01R02R03R04R05R07
+        R08R09R11R12R13R14R15R16R17R18R19R20R21R22R24R25  0
++         0  0  0  0  0  0  0  0  0  0  0  0  0  0  0  0  0
++         0  0  0  0  0  0  0  0  0  0  0  0  0  0  0  0  0
++         0  0  0  0  0  0  0  0  0  0  0  0  0  0  0  0  0
++         0  0  0  0  0  0  0  0  0  0  0  0  0  0  0  0  0
++         0  0  0  0  0  0  0  0  0  0  0  0  0  0  0  0  0
++         0  0  0  0  0  0  0  0  0  0  0  0  0  0  0  0  0
++         0  0  0  0  0  0  0  0  0  0  0  0  0  0  0  0  0
%c M  cc GPS ccc cccc cccc cccc cccc ccccc ccccc ccccc ccccc
%c cc cc ccc ccc cccc cccc cccc cccc ccccc ccccc ccccc ccccc
%f  0.0000000  0.000000000  0.00000000000  0.000000000000000
%f  0.0000000  0.000000000  0.00000000000  0.000000000000000
%i    0    0    0    0      0      0      0      0         0
%i    0    0    0    0      0      0      0      0         0
/* IAC                                ULTRA-RAPID PREDICTION
/* S/V CLOCKS ARE ALIGNED TO GNSS TIME                      
/* G:C1WC2W R:C1PC2P E:C1XC5X C:C2IC6I J:C1CC2S             
/* PCV:IGS20_2247 OL/AL:FES2004  NONE     YN ORB:CoN CLK:CoN
*  2023 07 15  2  0  0.00000000
PC06  -5657.794430  24727.881451 -33604.754030    262.846259
PC07 -16006.016860  33585.890933  19701.040158   -324.090713
PC08  -4757.722424  40446.188108  11275.878758    427.775100
PC09   4757.035100  28512.565619 -30063.318825    415.378830
PC10  -9844.264242  33341.159247  23800.774233   -114.789530
PC11  13494.671621 -10808.816120 -21849.177315    726.584950
PC12  26188.062301   1527.493962  -9509.779564    788.902091
PC13   -378.544655  42005.774306   5165.989277    315.642189
PC14  17901.923707 -21089.642576   3936.388254     59.715019
PC16  -5906.651885  23900.157947 -33928.873964      5.574645
PC19 -10808.628859  22385.387569 -12633.373610   -939.790154
PC20 -21559.920120  17286.527821   3752.618494    435.093922
PC21  20174.210596  -1276.096504 -19240.769467   -934.936602
PC22   6777.974595  14843.395960 -22639.496427   -395.949184
PC23 -10365.878130 -25317.193759  -5494.844902   -943.400705
PC24  13815.120462 -10233.308415  21973.651564    173.716264
PC25   1154.852284 -25630.373281  10949.095669    168.122721
PC26  17329.765333   9172.569777  19857.500717   -148.881810
PC27 -26978.160660  -6997.261688   1452.078228    169.715481
PC28 -18264.789648 -15693.641949 -14095.519533    126.502974
PC29  -2554.015365  15823.677131  22834.599571    147.371602
PC30 -21617.247863   6341.527191  16468.488892     -2.240957
PC32 -20102.718222   1287.405340  19315.709816   -539.103744
PC33  10758.870029 -22496.601412  12549.510629   -913.754327
PC34  20595.725323  -7273.386091 -17374.577173    214.976639
PC35  18444.963605  15186.773196  14378.981462    588.367560
PC36  -2272.294389  25285.627778 -11561.597012   -328.977192
PC37 -17028.077107 -10596.924506 -19376.576500   -793.408132
PC38  -9310.053438  36991.218654  18152.403839     91.621558
PC39 -12363.187117  20753.921552 -34510.071628     -3.825474
PC40 -24171.026666  28645.780514  19040.085340    -29.461954
PC41  -6197.962276 -15383.054331  22494.323985   -902.762111
PC42  21934.610889 -16511.262057  -5051.759774   -612.081399
PC43   3585.718234 -15706.894911 -22798.282733     30.733281
PC44  27196.347781   6055.851919  -1312.093318    168.921544
PC45  10609.420751  25110.732340   6025.449390     -1.919849
PC46 -13065.219331  11741.057075 -21686.230890    -68.954190
PE02 -13741.258902 -10699.481039 -23932.074807     49.807794
PE03 -24640.759242  -5788.808464  15332.257459    -36.109696
PE04  28525.541143  -7602.901581   2214.389332   -166.889950
PE05  -6280.980840 -15964.892153  24126.274247     -0.331762
PE07 -15943.114536  16655.077046 -18548.481907    -60.010813
PE08 -28597.845906   7379.666144  -1839.238932   -114.550576
PE09  16121.235666 -16540.179932  18526.788073    -84.935250
PE10  13076.058295  -9378.166572 -24858.026150   -548.581538
PE11   4120.132873 -17913.520145 -23220.672035   2487.069203
PE12  19302.311272   -253.107487 -22445.744034   -618.607634
PE13  -4704.703607  17357.276078  23505.408543    -19.328392
PE14 -23328.894734   4995.055832   2554.931660    282.472184
PE15 -19445.810189   -142.990640  22314.170307    -37.168521
PE18  27282.259163 -12775.255487 -11740.314754    296.965141
PE19  22876.794934   7455.364039 -17233.531633  -2074.740566
PE21   1804.039431  25842.090410  14321.977651   -540.771846
PE24  12305.528818 -26496.224538   4703.756534   -209.984964
PE25  -1534.427933 -26014.969597 -14028.647584   -608.310677
PE26  13076.449073  24517.355642  10206.065784    163.249719
PE27 -11839.039518  26822.065275  -4081.712721    -99.413126
PE30 -18473.411229  11406.782139 -20127.846938   -336.246401
PE31  18366.185721 -11982.742431  19893.512431     -0.413019
PE34 -22628.297719 -17271.209449   8081.415336    -56.129233
PE36 -12583.086307 -24465.472421 -10932.637226    -86.062620
PG01 -20219.189241 -12162.090293  12188.228355    172.981957
PG02 -21302.297459 -14659.597551   6902.271364   -576.073677
PG03 -14907.365858  -1710.368780  21763.682386   -232.178494
PG04 -25734.210715  -1024.485838   6747.667902     96.022697
PG05   7716.875356  17772.010622 -18299.333466   -134.925841
PG06   -205.595032  18954.383925  18623.254611    577.824090
PG07 -16251.447278   3321.208053 -20374.813388    124.872301
PG08 -19563.347361  -7761.688475 -16507.807389   -132.227580
PG09 -25482.372107   7106.882718  -2682.004866   -111.999944
PG10  10977.378391 -23720.666631  -3455.921978    -45.194393
PG11  11714.872401  22926.469821   6622.294592   -276.415089
PG12  13582.015847   6355.049540  21646.411591   -400.792275
PG13  11745.753938  13270.745360 -20031.816279    547.210215
PG14 -13550.720543  21825.539110  -6383.863209    122.549208
PG15  20702.534980   5803.072865 -16224.323640     58.101699
PG16  -2787.264721 -20820.398245 -16280.692384   -480.665018
PG17 -15420.700419  13625.741256  17280.550512    720.960457
PG18  14006.271059  -6181.588124 -21721.564437   -345.824501
PG19  -7739.759751  14569.349450  20522.605586    343.999438
PG20   2764.855716  24600.206737  -9839.689867    422.632613
PG21 -20937.204257 -16719.124197   4162.928291    152.138635
PG22   3769.849581 -15498.928898  21669.678130    512.862234
PG23  15598.166047 -15586.157465 -14683.012260     43.366920
PG24  21607.874226  13899.815803   7175.148997   -258.065985
PG25  16749.315947  -8073.369519  18553.564971    456.156691
PG26   3166.217397 -25660.217641  -5341.685749    236.432245
PG27  -8119.785719 -13646.152945 -21599.496660     -3.257939
PG28   1598.694744 -18237.539578  19223.964438     82.497053
PG29  26305.550931  -3760.865088  -1568.620081   -605.518862
PG30      0.000000      0.000000      0.000000   -504.216061
PG31  -7670.861053 -22397.426747  11420.331758   -220.065305
PG32  12014.754865 -15249.979003  18219.691570   -521.265368
PJ02 -25431.415206  31098.867916  -8027.545330     -1.390212
PJ03 -26021.393649  23040.766676  28946.340203     -0.097421
PJ04 -32299.551489  27082.643646   3585.548156     96.865405
PR01  21641.177543  -9656.916434  -9457.661604     61.395710
PR02  17452.908411 -16304.318447   8911.325168    -22.608563
PR03   2769.415328 -13851.470114  21270.561967     81.537580
PR04 -12844.305538  -3694.152325  21756.620969    194.970318
PR05 -21754.263097   8307.125459  10448.622378    115.763865
PR07  -2116.461792  13527.703476 -21493.610577     60.189703
PR08  13051.360363   3546.045132 -21563.196687    -71.651974
PR09  -5363.680192  20275.654657 -14436.743580    131.224018
PR11   9239.088992  16939.101126  16688.315873   -104.688165
PR12  10812.371364  -3088.295554  22925.575692     29.091168
PR13   6240.564688 -18823.409870  16037.137581    -37.107043
PR14  -2857.426078 -25278.689624  -2013.923894     24.954772
PR15  -9495.531984 -15947.687227 -17477.339048     87.828850
PR16 -10666.647475   2781.305081 -22986.180000     16.656715
PR17  -9535.195910 -14390.133667 -18758.239959     -0.131100
PR18 -21218.285447 -13384.827491  -4734.148966     91.608502
PR19 -22187.059580  -6998.084372  10444.090510   -239.849402
PR20  -9080.265558   6597.424424  22911.176803    -96.610216
PR21  10682.710313  14614.889339  17979.590318    -22.777216
PR22  21081.784189  13850.902203   3783.703631     95.226657
PR24   8457.338304  -7695.637907 -22792.699320    -16.560787
PR25   8729.627528  15032.747037  18678.430019     47.218058
EOF
